E-KAGAKU-1              
1 65943U 98067XQ  25299.43713291  .00049272  00000+0  79166-3 0  9999
2 65943  51.6337  16.4198 0004085 323.6954  36.3758 15.52513453  2493
2025-226D               
1 65944U 25226D   25290.94606692 -.00000071  00000+0  00000+0 0  9992
2 65944  97.6632   5.1263 0019022 287.2735  72.6416 15.16526485  1020
SHIYAN-31               
1 65945U 25227A   25300.81010184  .00009622  00000+0  44203-3 0  9994
2 65945  80.0037  82.8833 0011384 220.6103 139.4276 15.20237063  2195
CZ-2D R/B               
1 65946U 25227B   25300.80986785  .00011658  00000+0  43211-3 0  9993
2 65946  80.1543  83.1491 0021465 347.9657  12.1058 15.27303224  2208
KUIPER-00101            
1 65947U 25228A   25300.82016413  .00033178  00000+0  98076-3 0  9999
2 65947  51.8795 241.7800 0005847 182.6840 177.4115 15.34614540  3364
KUIPER-00113            
1 65948U 25228B   25300.88297941  .00029330  00000+0  86182-3 0  9993
2 65948  51.8799 241.4541 0006349 180.3678 179.7304 15.34864187  3370
KUIPER-00117            
1 65949U 25228C   25300.88335250  .00030336  00000+0  89214-3 0  9997
2 65949  51.8798 241.4561 0006137 180.4932 179.6049 15.34821506  3374
KUIPER-00121            
1 65950U 25228D   25300.88883443  .00034235  00000+0  10235-2 0  9999
2 65950  51.8809 241.4960 0005640 199.4067 160.6705 15.34243090  3374
KUIPER-00122            
1 65951U 25228E   25300.88989322  .00029627  00000+0  89183-3 0  9991
2 65951  51.8795 241.4962 0005984 205.6874 154.3815 15.34098735  3374
KUIPER-00123            
1 65952U 25228F   25300.88897348  .00041876  00000+0  12508-2 0  9994
2 65952  51.8796 241.4895 0005512 194.5115 165.5713 15.34176681  3370
KUIPER-00124            
1 65953U 25228G   25300.89032764  .00029026  00000+0  87515-3 0  9993
2 65953  51.8806 241.5022 0005545 209.1795 150.8882 15.34060020  3372
KUIPER-00125            
1 65954U 25228H   25300.82144363  .00029133  00000+0  86702-3 0  9992
2 65954  51.8793 241.7872 0005556 188.5203 171.5690 15.34470301  3362
